CELESTIS-17 & SHERPA-FX1
1 47486U 21006CB  26068.64311433  .00007207  00000+0  24301-3 0  9993
2 47486  97.2397 112.1052 0006630 178.1385 181.9882 15.30994801284065
STARLINK-2533           
1 48294U 21036U   26068.31668540 -.00001691  00000+0 -44995-4 0  9997
2 48294  53.1612  76.9993 0001170 119.6807 240.4310 15.30195360268352
